[{"OBJECT_NAME":"LEMUR-2-WILSON","OBJECT_ID":"2025-009CP","EPOCH":"2026-03-09T05:30:24.962112","MEAN_MOTION":14.94676648,"ECCENTRICITY":0.00035998,"INCLINATION":97.7068,"RA_OF_ASC_NODE":148.4663,"ARG_OF_PERICENTER":38.3481,"MEAN_ANOMALY":321.7994,"EPHEMERIS_TYPE":0,"CLASSIFICATION_TYPE":"U","NORAD_CAT_ID":62694,"ELEMENT_SET_NO":999,"REV_AT_EPOCH":6242,"BSTAR":0.00038001,"MEAN_MOTION_DOT":4.065e-5,"MEAN_MOTION_DDOT":0},{"OBJECT_NAME":"CZ-4B DEB","OBJECT_ID":"1999-057HN","EPOCH":"2026-03-09T18:25:21.450432","MEAN_MOTION":14.85566097,"ECCENTRICITY":0.00485224,"INCLINATION":98.2919,"RA_OF_ASC_NODE":162.1261,"ARG_OF_PERICENTER":121.345,"MEAN_ANOMALY":0.0093,"EPHEMERIS_TYPE":0,"CLASSIFICATION_TYPE":"U","NORAD_CAT_ID":26329,"ELEMENT_SET_NO":999,"REV_AT_EPOCH":37257,"BSTAR":0.0017246939,"MEAN_MOTION_DOT":0.000152,"MEAN_MOTION_DDOT":0}]
